[{"OBJECT_NAME":"FUNCUBE-1 (AO-73)","OBJECT_ID":"2013-066AE","EPOCH":"2026-03-09T21:45:20.354112","MEAN_MOTION":15.07917828,"ECCENTRICITY":0.00373117,"INCLINATION":97.8195,"RA_OF_ASC_NODE":38.4486,"ARG_OF_PERICENTER":178.1154,"MEAN_ANOMALY":182.0221,"EPHEMERIS_TYPE":0,"CLASSIFICATION_TYPE":"U","NORAD_CAT_ID":39444,"ELEMENT_SET_NO":999,"REV_AT_EPOCH":66469,"BSTAR":0.00061714882,"MEAN_MOTION_DOT":9.564e-5,"MEAN_MOTION_DDOT":0},{"OBJECT_NAME":"STARLINK-5011","OBJECT_ID":"2022-119AR","EPOCH":"2026-03-09T21:47:57.243552","MEAN_MOTION":15.0882433,"ECCENTRICITY":0.00010101,"INCLINATION":53.2185,"RA_OF_ASC_NODE":312.7417,"ARG_OF_PERICENTER":75.2053,"MEAN_ANOMALY":284.9051,"EPHEMERIS_TYPE":0,"CLASSIFICATION_TYPE":"U","NORAD_CAT_ID":53925,"ELEMENT_SET_NO":999,"REV_AT_EPOCH":19186,"BSTAR":0.00014535131,"MEAN_MOTION_DOT":2.025e-5,"MEAN_MOTION_DDOT":0}]
