FUNCUBE-1 (AO-73)       
1 39444U 13066AE  26068.90648558  .00009564  00000+0  61715-3 0  9993
2 39444  97.8195  38.4486 0037312 178.1154 182.0221 15.07917828664696
STARLINK-5011           
1 53925U 22119AR  26068.90830142  .00002025  00000+0  14535-3 0  9997
2 53925  53.2185 312.7417 0001010  75.2053 284.9051 15.08824330191867
